H1 CPF 01  gfz 2021 07 09 12  6902 terrasarx 
H2 0702601  6201 31698    2021 07 09 00 59 42 2021 07 14 00 00 42   120 1 1  0 0 0
H9
10 0 59404  20142.000000  0    4660679.544   -143592.784  -5078467.611
10 0 59404  20262.000000  0    3955297.005   -330820.807  -5637673.066
10 0 59404  20382.000000  0    3178156.839   -499334.545  -6098338.600
10 0 59404  20502.000000  0    2343157.715   -645082.708  -6452504.408
10 0 59404  20622.000000  0    1465235.243   -764663.697  -6694063.504
10 0 59404  20742.000000  0     560096.543   -855398.214  -6818857.020
10 0 59404  20862.000000  0    -356057.547   -915384.318  -6824738.482
10 0 59404  20982.000000  0   -1266815.902   -943534.570  -6711605.852
10 0 59404  21102.000000  0   -2155844.281   -939595.259  -6481403.764
10 0 59404  21222.000000  0   -3007172.018   -904146.873  -6138092.602
10 0 59404  21342.000000  0   -3805472.247   -838586.455  -5687587.661
10 0 59404  21462.000000  0   -4536336.720   -745091.868  -5137669.013
10 0 59404  21582.000000  0   -5186538.416   -626567.944  -4497858.040
10 0 59404  21702.000000  0   -5744276.593   -486576.217  -3779264.140
10 0 59404  21822.000000  0   -6199401.364   -329248.647  -2994401.598
10 0 59404  21942.000000  0   -6543610.345   -159186.434  -2156977.608
10 0 59404  22062.000000  0   -6770613.581     18652.723  -1281656.249
10 0 59404  22182.000000  0   -6876262.374    199078.242   -383799.733
10 0 59404  22302.000000  0   -6858633.981    376796.583    520807.928
10 0 59404  22422.000000  0   -6718072.413    546544.873   1416244.699
10 0 59404  22542.000000  0   -6457185.486    703224.364   2286739.327
10 0 59404  22662.000000  0   -6080795.466    842030.523   3116958.655
10 0 59404  22782.000000  0   -5595844.206    958576.431   3892285.986
10 0 59404  22902.000000  0   -5011256.084   1049006.064   4599083.394
10 0 59404  23022.000000  0   -4337763.670   1110094.764   5224933.372
10 0 59404  23142.000000  0   -3587700.879   1139334.380   5758855.297
10 0 59404  23262.000000  0   -2774768.755   1135001.758   6191495.020
10 0 59404  23382.000000  0   -1913777.767   1096208.864   6515284.636
10 0 59404  23502.000000  0   -1020371.456   1022934.305   6724568.623
10 0 59404  23622.000000  0    -110739.573    916034.666   6815695.361
10 0 59404  23742.000000  0     798674.904    777236.094   6787076.220
10 0 59404  23862.000000  0    1691471.688    609106.422   6639211.353
10 0 59404  23982.000000  0    2551587.589    415008.277   6374681.684
10 0 59404  24102.000000  0    3363585.335    199033.545   5998107.760
10 0 59404  24222.000000  0    4112933.028    -34080.093   5516074.044
10 0 59404  24342.000000  0    4786268.013   -279048.969   4937019.545
10 0 59404  24462.000000  0    5371641.411   -530157.604   4271095.977
10 0 59404  24582.000000  0    5858738.649   -781385.625   3529994.783
10 0 59404  24702.000000  0    6239071.850  -1026544.406   2726744.446
10 0 59404  24822.000000  0    6506137.739  -1259420.481   1875480.197
10 0 59404  24942.000000  0    6655536.558  -1473921.435    991191.354
10 0 59404  25062.000000  0    6685050.731  -1664222.654     89452.114
10 0 59404  25182.000000  0    6594680.122  -1824910.498   -813861.973
10 0 59404  25302.000000  0    6386630.582  -1951116.381  -1702862.550
10 0 59404  25422.000000  0    6065259.028  -2038640.222  -2561936.437
10 0 59404  25542.000000  0    5636974.766  -2084059.177  -3376025.972
10 0 59404  25662.000000  0    5110101.891  -2084819.330  -4130895.343
10 0 59404  25782.000000  0    4494707.346  -2039308.421  -4813378.854
10 0 59404  25902.000000  0    3802397.856  -1946908.532  -5411606.892
10 0 59404  26022.000000  0    3046090.886  -1808027.570  -5915204.279
10 0 59404  26142.000000  0    2239767.803  -1624108.874  -6315459.100
10 0 59404  26262.000000  0    1398213.433  -1397619.341  -6605463.523
10 0 59404  26382.000000  0     536744.423  -1132016.579  -6780222.169
10 0 59404  26502.000000  0    -329065.876   -831696.492  -6836728.745
10 0 59404  26622.000000  0   -1183662.953   -501921.424  -6774011.650
10 0 59404  26742.000000  0   -2011784.184   -148730.029  -6593149.184
10 0 59404  26862.000000  0   -2798725.328    221170.586  -6297251.969
10 0 59404  26982.000000  0   -3530595.625    600527.887  -5891415.118
10 0 59404  27102.000000  0   -4194560.971    981681.551  -5382640.721
10 0 59404  27222.000000  0   -4779070.805   1356712.867  -4779728.022
10 0 59404  27342.000000  0   -5274065.011   1717605.311  -4093133.851
10 0 59404  27462.000000  0   -5671155.650   2056412.592  -3334800.581
10 0 59404  27582.000000  0   -5963779.393   2365429.320  -2517956.337
10 0 59404  27702.000000  0   -6147317.869   2637361.878  -1656888.816
10 0 59404  27822.000000  0   -6219181.532   2865495.419   -766695.841
10 0 59404  27942.000000  0   -6178854.389   3043852.530    136982.917
10 0 59404  28062.000000  0   -6027896.832   3167338.704   1038248.202
10 0 59404  28182.000000  0   -5769905.332   3231871.208   1921229.659
10 0 59404  28302.000000  0   -5410431.071   3234487.627   2770374.363
10 0 59404  28422.000000  0   -4956859.783   3173431.499   3570728.660
10 0 59404  28542.000000  0   -4418255.525   3048212.221   4308208.443
10 0 59404  28662.000000  0   -3805172.311   2859637.969   4969850.039
10 0 59404  28782.000000  0   -3129440.477   2609822.146   5544037.912
10 0 59404  28902.000000  0   -2403931.263   2302163.498   6020707.159
10 0 59404  29022.000000  0   -1642304.808   1941299.183   6391515.417
10 0 59404  29142.000000  0    -858747.706   1533032.764   6649982.354
10 0 59404  29262.000000  0     -67707.220   1084238.741   6791595.421
10 0 59404  29382.000000  0     716374.529    602745.462   6813883.697
10 0 59404  29502.000000  0    1479323.311     97198.593   6716457.977
10 0 59404  29622.000000  0    2207487.690   -423093.242   6501017.420
10 0 59404  29742.000000  0    2887982.701   -948329.314   6171322.695
10 0 59404  29862.000000  0    3508919.347  -1468400.220   5733135.173
10 0 59404  29982.000000  0    4059616.110  -1973082.182   5194121.794
10 0 59404  30102.000000  0    4530786.889  -2452237.937   4563726.267
10 0 59404  30222.000000  0    4914704.029  -2896021.272   3853010.064
10 0 59404  30342.000000  0    5205333.280  -3295081.534   3074461.907
10 0 59404  30462.000000  0    5398435.598  -3640761.828   2241777.680
10 0 59404  30582.000000  0    5491632.308  -3925286.913   1369616.972
10 0 59404  30702.000000  0    5484433.864  -4141936.994    473340.039
10 0 59404  30822.000000  0    5378230.449  -4285201.096   -431269.975
10 0 59404  30942.000000  0    5176244.612  -4350907.761  -1328293.880
10 0 59404  31062.000000  0    4883446.448  -4336327.859  -2201965.570
10 0 59404  31182.000000  0    4506433.846  -4240247.792  -3036956.514
10 0 59404  31302.000000  0    4053281.785  -4063011.851  -3818649.273
10 0 59404  31422.000000  0    3533364.439  -3806532.325  -4533394.656
10 0 59404  31542.000000  0    2957155.556  -3474268.598  -5168747.260
10 0 59404  31662.000000  0    2336012.028  -3071175.904  -5713675.369
10 0 59404  31782.000000  0    1681947.246  -2603626.594  -6158741.925
10 0 59404  31902.000000  0    1007398.426  -2079306.125  -6496258.320
10 0 59404  32022.000000  0     324990.406  -1507083.005  -6720407.425
10 0 59404  32142.000000  0    -352697.747   -896857.390  -6827333.024
10 0 59404  32262.000000  0   -1013359.228   -259391.586  -6815197.900
10 0 59404  32382.000000  0   -1645177.572    393875.589  -6684211.695
10 0 59404  32502.000000  0   -2237033.230   1051028.804  -6436627.073
10 0 59404  32622.000000  0   -2778694.763   1699888.036  -6076705.223
10 0 59404  32742.000000  0   -3260993.367   2328228.909  -5610650.818
10 0 59404  32862.000000  0   -3675979.215   2924009.967  -5046516.825
10 0 59404  32982.000000  0   -4017057.061   3475602.917  -4394076.823
10 0 59404  33102.000000  0   -4279096.496   3972020.749  -3664665.241
10 0 59404  33222.000000  0   -4458513.836   4403139.533  -2870989.325
10 0 59404  33342.000000  0   -4553326.094   4759909.459  -2026914.166
10 0 59404  33462.000000  0   -4563173.919   5034549.055  -1147223.153
10 0 59404  33582.000000  0   -4489313.357   5220719.306   -247357.795
10 0 59404  33702.000000  0   -4334573.112   5313670.816    656859.736
10 0 59404  33822.000000  0   -4103280.475   5310360.265   1549511.692
10 0 59404  33942.000000  0   -3801156.503   5209532.972   2414875.819
10 0 59404  34062.000000  0   -3435181.728   5011767.461   3237711.632
10 0 59404  34182.000000  0   -3013437.168   4719483.241   4003535.248
10 0 59404  34302.000000  0   -2544926.371   4336912.240   4698878.571
10 0 59404  34422.000000  0   -2039381.480   3870033.529   5311528.154
10 0 59404  34542.000000  0   -1507058.817   3326473.275   5830738.757
10 0 59404  34662.000000  0    -958528.301   2715373.001   6247417.719
10 0 59404  34782.000000  0    -404462.424   2047229.126   6554277.569
10 0 59404  34902.000000  0     144570.607   1333709.180   6745957.005
10 0 59404  35022.000000  0     678308.159    587445.366   6819109.570
10 0 59404  35142.000000  0    1186984.107   -178189.243   6772457.436
10 0 59404  35262.000000  0    1661506.439   -949319.308   6606813.184
10 0 59404  35382.000000  0    2093619.473  -1711818.238   6325066.766
10 0 59404  35502.000000  0    2476048.032  -2451566.273   5932139.106
10 0 59404  35622.000000  0    2802622.043  -3154713.231   5434901.621
10 0 59404  35742.000000  0    3068378.224  -3807940.276   4842061.535
10 0 59404  35862.000000  0    3269637.616  -4398716.160   4164015.374
10 0 59404  35982.000000  0    3404058.066  -4915544.092   3412670.772
10 0 59404  36102.000000  0    3470658.906  -5348191.991   2601238.701
10 0 59404  36222.000000  0    3469817.937  -5687902.008   1743999.994
10 0 59404  36342.000000  0    3403239.719  -5927573.454    856049.863
10 0 59404  36462.000000  0    3273896.593  -6061913.190    -46973.994
10 0 59404  36582.000000  0    3085944.735  -6087553.072   -949173.938
99
